HAIYANG-2D              
1 48621U 21043A   26179.64278086 -.00000083  00000+0 -15498-5 0  9991
2 48621  65.9996 276.1788 0011536 267.5579  92.4169 13.83371570258131
2021-050D               
1 48843U 21050D   26179.63356084  .00007072  00000+0  29965-3 0  9994
2 48843  97.3339 255.4091 0004571 209.7564 150.3414 15.23442744280700
TYVAK-0173              
1 48892U 21059P   26179.47416235  .00001654  00000+0  21276-3 0  9991
2 48892  96.0082 253.0253 0008863   3.9519 356.1767 14.81924716269915
MANDRAKE 2 ABLE         
1 48907U 21059AE  26179.49829822  .00020759  00000+0  30607-3 0  9995
2 48907  97.7024  10.1488 0003574 317.1181  42.9794 15.55422250278881
MANDRAKE 2 BAKER        
1 48908U 21059AF  26179.52464614  .00025976  00000+0  32081-3 0  9998
2 48908  97.6993  13.1284 0002174 310.4973  49.6093 15.60137605279063
PACE-1                  
1 48909U 21059AG  26179.29539653  .00096907  00000+0  47769-3 0  9990
2 48909  97.6746  18.7051 0002319 221.5736 138.5356 15.81854006279551
YAM-3                   
1 48915U 21059AN  26179.50384477  .00010949  00000+0  20558-3 0  9992
2 48915  97.6982   7.2007 0003919 326.5677  33.5325 15.48798259278741
FARADAY_PHOENIX         
1 48924U 21059AX  26179.48951615  .00142881  00000+0  70467-3 0  9998
2 48924  97.6789  18.8017 0004492 250.1646 109.9138 15.81708468279448
DEMO8 (TENZING)         
1 48951U 21059CA  26179.50128727  .00019707  00000+0  29068-3 0  9992
2 48951  97.7014  13.7852 0005375 307.6299  52.4466 15.55413930279066
NAPA-2                  
1 48963U 21059CN  26179.03911377  .00795821  36886-3  74825-3 0  9998
2 48963  97.6528  19.8888 0005517 241.2413 118.8316 16.12128839279553
FENGYUN 3E              
1 49008U 21062A   26179.61733611 -.00000009  00000+0  16531-4 0  9994
2 49008  98.7490 182.8976 0002753  66.9083 293.2384 14.19905299258207
ISS (NAUKA)             
1 49044U 21066A   26179.54140602  .00005887  00000+0  11310-3 0  9999
2 49044  51.6322 243.8877 0004259 242.8085 117.2470 15.49467065571686
STARLINK-3100           
1 49144U 21082Q   26179.58975146  .00000395  00000+0  40933-4 0  9994
2 49144  69.9999  14.8286 0002995 267.4032  92.6785 14.98330662262596
CUTE                    
1 49263U 21088D   26179.54232354  .00215339  20672-4  48306-3 0  9994
2 49263  97.4130 279.9716 0005802 209.3792 150.7159 15.97727340264362
2021-091B               
1 49316U 21091B   26179.65718149  .00002780  00000+0  13741-3 0  9997
2 49316  97.4469   7.0571 0013503   7.9674 352.1772 15.18608722260723
SDGSAT 1                
1 49387U 21100A   26179.62573463  .00002532  00000+0  12351-3 0  9992
2 49387  97.2629 226.1390 0008020 223.8981 136.1618 15.19162793257659
TEIKYOSAT-4 (OORURI)    
1 49396U 21102B   26179.58847215  .00001537  00000+0  99491-4 0  9993
2 49396  97.3666 208.6287 0010409 251.2825 108.7275 15.09545606254442
Z-SAT                   
1 49399U 21102E   26179.59960244  .00004057  00000+0  20021-3 0  9997
2 49399  97.3321 214.5761 0015818 201.3511 158.7065 15.18346169255179
HIBARI                  
1 49400U 21102F   26179.63359095  .00010259  00000+0  33409-3 0  9996
2 49400  97.3235 225.4072 0012592 153.0403 207.1495 15.31958823255943
KOSEN-1                 
1 49402U 21102H   26179.61013414  .00007046  00000+0  26793-3 0  9996
2 49402  97.3182 221.5457 0014406 160.7086 199.4701 15.26989864255764
GLOBAL-14               
1 49469U 21106A   26179.48479012  .00020960  00000+0  35307-3 0  9999
2 49469  42.0016 223.9138 0014969 103.8668 256.3842 15.51119034259888
GAOFEN-3 02             
1 49495U 21109A   26179.63501863 -.00000028  00000+0  46665-5 0  9993
2 49495  98.4085 187.5689 0002167 345.2306  14.8820 14.42218174241969
GLOBAL-12               
1 49772U 21115BA  26179.20042105  .00031741  00000+0  48298-3 0  9997
2 49772  53.1959 351.5612 0002672  75.4958 284.6350 15.54267047257611
GLOBAL-13               
1 49773U 21115BB  26179.62503532  .00019117  00000+0  38695-3 0  9993
2 49773  53.1977   0.1994 0002706 134.4159 225.7071 15.46481574257530
GLOBAL-17               
1 49949U 21120A   26179.15354224  .00027600  00000+0  43498-3 0  9997
2 49949  41.9955 343.9226 0015353 326.9610  33.0274 15.52837285256607
GLOBAL-16               
1 49950U 21120B   26179.50392038  .00024477  00000+0  41753-3 0  9994
2 49950  41.9958 345.7773 0013455 319.5056  40.4786 15.50714256256602
XW-3 (CAS-9)            
1 50466U 21131B   26179.57815890  .00000405  00000+0  13870-3 0  9997
2 50466  98.4989 271.9062 0005321  70.4372 289.7391 14.41367271236759
ION SCV-004             
1 50993U 22002K   26179.41473390  .00004823  00000+0  16576-3 0  9992
2 50993  97.2835 236.8626 0006002 324.0637  36.0200 15.30557323247017
ETV-A1                  
1 51060U 22002CE  26179.63876580  .00009749  00000+0  23909-3 0  9990
2 51060  97.2879 245.9119 0003514 311.9946  48.1001 15.40911543247609
BRO-5                   
1 51061U 22002CF  26179.63046808  .00026977  00000+0  51705-3 0  9990
2 51061  97.2999 253.4042 0003833 270.0702  90.0109 15.47986021248023
