OBJECT_NAME,OBJECT_ID,EPOCH,MEAN_MOTION,ECCENTRICITY,INCLINATION,RA_OF_ASC_NODE,ARG_OF_PERICENTER,MEAN_ANOMALY,EPHEMERIS_TYPE,CLASSIFICATION_TYPE,NORAD_CAT_ID,ELEMENT_SET_NO,REV_AT_EPOCH,BSTAR,MEAN_MOTION_DOT,MEAN_MOTION_DDOT
HAIYANG-2D,2021-043A,2026-06-28T15:25:36.266304,13.83371570,.0011536,65.9996,276.1788,267.5579,92.4169,0,U,48621,999,25813,-.1549771E-5,-.83E-6,0
2021-050D,2021-050D,2026-06-28T15:12:19.656576,15.23442744,.00045713,97.3339,255.4091,209.7564,150.3414,0,U,48843,999,28070,.29964529E-3,.7072E-4,0
TYVAK-0173,2021-059P,2026-06-28T11:22:47.627040,14.81924716,.00088636,96.0082,253.0253,3.9519,356.1767,0,U,48892,999,26991,.21276047E-3,.1654E-4,0
MANDRAKE 2 ABLE,2021-059AE,2026-06-28T11:57:32.966208,15.55422250,.00035746,97.7024,10.1488,317.1181,42.9794,0,U,48907,999,27888,.30607208E-3,.20759E-3,0
MANDRAKE 2 BAKER,2021-059AF,2026-06-28T12:35:29.426496,15.60137605,.00021748,97.6993,13.1284,310.4973,49.6093,0,U,48908,999,27906,.3208099E-3,.25976E-3,0
PACE-1,2021-059AG,2026-06-28T07:05:22.260192,15.81854006,.0002319,97.6746,18.7051,221.5736,138.5356,0,U,48909,999,27955,.47769484E-3,.96907E-3,0
YAM-3,2021-059AN,2026-06-28T12:05:32.188128,15.48798259,.00039196,97.6982,7.2007,326.5677,33.5325,0,U,48915,999,27874,.20557746E-3,.10949E-3,0
FARADAY_PHOENIX,2021-059AX,2026-06-28T11:44:54.195360,15.81708468,.00044925,97.6789,18.8017,250.1646,109.9138,0,U,48924,999,27944,.70467407E-3,.142881E-2,0
DEMO8 (TENZING),2021-059CA,2026-06-28T12:01:51.220128,15.55413930,.00053754,97.7014,13.7852,307.6299,52.4466,0,U,48951,999,27906,.29067861E-3,.19707E-3,0
NAPA-2,2021-059CN,2026-06-28T00:56:19.429728,16.12128839,.00055175,97.6528,19.8888,241.2413,118.8316,0,U,48963,999,27955,.74825025E-3,.795821E-2,.36885785E-3
FENGYUN 3E,2021-062A,2026-06-28T14:48:57.839904,14.19905299,.00027539,98.7490,182.8976,66.9083,293.2384,0,U,49008,999,25820,.16531485E-4,-.9E-7,0
ISS (NAUKA),2021-066A,2026-06-28T12:59:37.480128,15.49467065,.00042596,51.6322,243.8877,242.8085,117.2470,0,U,49044,999,57168,.11309881E-3,.5887E-4,0
STARLINK-3100,2021-082Q,2026-06-28T14:09:14.526144,14.98330662,.00029958,69.9999,14.8286,267.4032,92.6785,0,U,49144,999,26259,.40933256E-4,.395E-5,0
CUTE,2021-088D,2026-06-28T13:00:56.753856,15.97727340,.00058025,97.4130,279.9716,209.3792,150.7159,0,U,49263,999,26436,.48305564E-3,.215339E-2,.20672418E-4
2021-091B,2021-091B,2026-06-28T15:46:20.480736,15.18608722,.00135036,97.4469,7.0571,7.9674,352.1772,0,U,49316,999,26072,.1374068E-3,.278E-4,0
SDGSAT 1,2021-100A,2026-06-28T15:01:03.472032,15.19162793,.00080206,97.2629,226.1390,223.8981,136.1618,0,U,49387,999,25765,.12350783E-3,.2532E-4,0
TEIKYOSAT-4 (OORURI),2021-102B,2026-06-28T14:07:23.993760,15.09545606,.00104096,97.3666,208.6287,251.2825,108.7275,0,U,49396,999,25444,.99490573E-4,.1537E-4,0
Z-SAT,2021-102E,2026-06-28T14:23:25.650816,15.18346169,.00158189,97.3321,214.5761,201.3511,158.7065,0,U,49399,999,25517,.20020935E-3,.4057E-4,0
HIBARI,2021-102F,2026-06-28T15:12:22.258080,15.31958823,.00125924,97.3235,225.4072,153.0403,207.1495,0,U,49400,999,25594,.3340905E-3,.10259E-3,0
KOSEN-1,2021-102H,2026-06-28T14:38:35.589696,15.26989864,.00144069,97.3182,221.5457,160.7086,199.4701,0,U,49402,999,25576,.26793005E-3,.7046E-4,0
GLOBAL-14,2021-106A,2026-06-28T11:38:05.866368,15.51119034,.00149691,42.0016,223.9138,103.8668,256.3842,0,U,49469,999,25988,.35306609E-3,.2096E-3,0
GAOFEN-3 02,2021-109A,2026-06-28T15:14:25.609632,14.42218174,.00021671,98.4085,187.5689,345.2306,14.8820,0,U,49495,999,24196,.4666547E-5,-.28E-6,0
GLOBAL-12,2021-115BA,2026-06-28T04:48:36.378720,15.54267047,.00026728,53.1959,351.5612,75.4958,284.6350,0,U,49772,999,25761,.48297846E-3,.31741E-3,0
GLOBAL-13,2021-115BB,2026-06-28T15:00:03.051648,15.46481574,.00027068,53.1977,0.1994,134.4159,225.7071,0,U,49773,999,25753,.38695344E-3,.19117E-3,0
GLOBAL-17,2021-120A,2026-06-28T03:41:06.049536,15.52837285,.00153536,41.9955,343.9226,326.9610,33.0274,0,U,49949,999,25660,.43498472E-3,.276E-3,0
GLOBAL-16,2021-120B,2026-06-28T12:05:38.720832,15.50714256,.00134555,41.9958,345.7773,319.5056,40.4786,0,U,49950,999,25660,.41752584E-3,.24477E-3,0
XW-3 (CAS-9),2021-131B,2026-06-28T13:52:32.928960,14.41367271,.00053215,98.4989,271.9062,70.4372,289.7391,0,U,50466,999,23675,.13869864E-3,.405E-5,0
ION SCV-004,2022-002K,2026-06-28T09:57:13.008960,15.30557323,.00060024,97.2835,236.8626,324.0637,36.0200,0,U,50993,999,24701,.16575848E-3,.4823E-4,0
ETV-A1,2022-002CE,2026-06-28T15:19:49.365120,15.40911543,.0003514,97.2879,245.9119,311.9946,48.1001,0,U,51060,999,24760,.23908971E-3,.9749E-4,0
BRO-5,2022-002CF,2026-06-28T15:07:52.442112,15.47986021,.00038333,97.2999,253.4042,270.0702,90.0109,0,U,51061,999,24802,.51705353E-3,.26977E-3,0
